YAOGAN-43 01D           
1 60461U 24148D   26068.43560480  .00010676  00000+0  37766-3 0  9999
2 60461  35.0010  61.7102 0002556 326.2473  33.8080 15.28369377 87008
STARLINK-36488          
1 67306U 26002B   26068.41525493  .00036487  00000+0  13291-2 0  9992
2 67306  43.0006 327.1045 0000433 359.2069   0.8782 15.27575874 11034
